{
    "links": {
        "self": "http://www.neowsapp.com/rest/v1/neo/3638337?api_key=iIulBulltgU6a56xZRHN4H3l9WmuAYTsLGpBGhQ2"
    },
    "id": "3638337",
    "neo_reference_id": "3638337",
    "name": "(2013 JU17)",
    "designation": "2013 JU17",
    "nasa_jpl_url": "http://ssd.jpl.nasa.gov/sbdb.cgi?sstr=3638337",
    "absolute_magnitude_h": 26.0,
    "estimated_diameter": {
        "kilometers": {
            "estimated_diameter_min": 0.0167708462,
            "estimated_diameter_max": 0.0375007522
        },
        "meters": {
            "estimated_diameter_min": 16.7708462163,
            "estimated_diameter_max": 37.5007521798
        },
        "miles": {
            "estimated_diameter_min": 0.0104209175,
            "estimated_diameter_max": 0.0233018799
        },
        "feet": {
            "estimated_diameter_min": 55.0224631002,
            "estimated_diameter_max": 123.0339677816
        }
    },
    "is_potentially_hazardous_asteroid": false,
    "close_approach_data": [
        {
            "close_approach_date": "2013-05-09",
            "close_approach_date_full": "2013-May-09 13:24",
            "epoch_date_close_approach": 1368105840000,
            "relative_velocity": {
                "kilometers_per_second": "6.980597737",
                "kilometers_per_hour": "25130.1518530743",
                "miles_per_hour": "15614.8990778172"
            },
            "miss_distance": {
                "astronomical": "0.0306894063",
                "lunar": "11.9381790507",
                "kilometers": "4591069.814044581",
                "miles": "2852758.4982779778"
            },
            "orbiting_body": "Earth"
        }
    ],
    "orbital_data": {
        "orbit_id": "9",
        "orbit_determination_date": "2017-04-06 08:45:54",
        "first_observation_date": "2013-05-10",
        "last_observation_date": "2013-05-16",
        "data_arc_in_days": 6,
        "observations_used": 25,
        "orbit_uncertainty": "8",
        "minimum_orbit_intersection": ".0271505",
        "jupiter_tisserand_invariant": "3.404",
        "epoch_osculation": "2456424.5",
        "eccentricity": ".54354706604619",
        "semi_major_axis": "2.266296314027387",
        "inclination": "1.327629563855928",
        "ascending_node_longitude": "209.5722213303578",
        "orbital_period": "1246.159020472746",
        "perihelion_distance": "1.034457601746506",
        "perihelion_argument": "10.61855188946344",
        "aphelion_distance": "3.498135026308268",
        "perihelion_time": "2456414.950743171152",
        "mean_anomaly": "2.758662740394988",
        "mean_motion": ".2888876893604072",
        "equinox": "J2000",
        "orbit_class": {
            "orbit_class_type": "AMO",
            "orbit_class_description": "Near-Earth asteroid orbits similar to that of 1221 Amor",
            "orbit_class_range": "1.017 AU < q (perihelion) < 1.3 AU"
        }
    },
    "is_sentry_object": false
}